_id,Location,LocationName,Address1,Address2,Address3,Address4,Postcode,StartDate,EndDate,HB,HBQF,CA,CAQF,HSCP,HSCPQF,DataZone,DataZoneQF,IntZone,IntZoneQF
1,A101H,Arran War Memorial Hospital,Lamlash,Isle Of Arran,,,KA278LF,,,S08000015,,S12000021,,S37000020,,S01011176,,S02002097,
2,A103H,Ayrshire Central Hospital,Kilwinning Road,Irvine,,,KA128SS,,,S08000015,,S12000021,,S37000020,,S01011213,,S02002105,
3,A105H,Kirklandside Hospital,Kirklandside,Kilmarnock,Ayrshire,,KA1 5LH,,,S08000015,,S12000008,,S37000008,,S01007961,,S02001492,
4,A110H,Lady Margaret Hospital,College St,Millport,Isle Of Cumbrae,,KA280HF,,,S08000015,,S12000021,,S37000020,,S01011328,,S02002128,
5,A111H,University Hospital Crosshouse,Kilmarnock Road,Kilmarnock,Ayrshire,,KA2 0BE,,,S08000015,,S12000008,,S37000008,,S01008027,,S02001504,
6,A112H,Brooksby Day Hospital,18 Greenock Road,Largs,,,KA308NE,,,S08000015,,S12000021,,S37000020,,S01011329,,S02002129,
7,A114H,Warrix Avenue Mental Health Community Rehabilitation Unit,Warrix Avenue,Irvine,,,KA120DP,20180901,,S08000015,,S12000021,,S37000020,,S01011229,,S02002109,
8,A201H,Ailsa Hospital,Dalmellington Road,Ayr,,,KA6 6AB,,,S08000015,,S12000028,,S37000027,,S01012444,,S02002333,
9,A208H,Biggart Hospital,Biggart Road,Prestwick,,,KA9 2HQ,,,S08000015,,S12000028,,S37000027,,S01012529,,S02002347,
10,A210H,University Hospital Ayr,Dalmellington Road,Ayr,,,KA6 6DX,19910506,,S08000015,,S12000028,,S37000027,,S01012444,,S02002333,
11,A211H,Arrol Park Resource Centre,10 Doonfoot Road,Ayr,,,KA7 4DW,19910917,,S08000015,,S12000028,,S37000027,,S01012451,,S02002335,
12,A214H,Three Towns Resource Centre,Nelson Road,Saltcoats,,,KA215RF,19981130,,S08000015,,S12000021,,S37000020,,S01011237,,S02002111,
13,A215H,East Ayrshire Community Hospital,Ayr Road,Cumnock,,,KA181EF,20000807,,S08000015,,S12000008,,S37000008,,S01007918,,S02001484,
14,A216H,Girvan Community Hospital,Bridgemill,Girvan,Ayrshire,,KA269HQ,20100101,,S08000015,,S12000028,,S37000027,,S01012433,,S02002331,
15,A217H,Woodland View,Ayrshire Central Hospital,Kilwinning Road,Irvine,,KA128SS,20160301,,S08000015,,S12000021,,S37000020,,S01011213,,S02002105,
16,A227V,The Ayrshire Hospice,35 Racecourse Road,Ayr,,,KA7 2TG,,,S27000001,,S12000028,,,z,S01012485,,S02002339,
17,A237V,Carrick Glen Hospital,Dalmellington Road,Ayr,,,KA6 6PG,19920427,,S27000001,,S12000028,,,z,S01012444,,S02002333,
18,A240V,Cumbrae Lodge,Castlepark,Irvine,,,KA128SZ,19960701,,S27000001,,S12000021,,,z,S01011214,,S02002105,
19,B103H,The Knoll Hospital,Station Road,Duns,,,TD113EL,,,S08000016,,S12000026,,S37000025,,S01012305,,S02002304,
20,B104H,Galavale House,Tweed Road,Galashiels,,,TD1 3EB,,,S08000016,,S12000026,,S37000025,,S01012282,,S02002299,
21,B105H,Hawick Community  Hospital,Victoria Road,Hawick,,,TD9 7AH,,,S08000016,,S12000026,,S37000025,,S01012372,,S02002319,
22,B108H,Andrew Lang Unit,Viewfield House,Selkirk,,,TD7 4LH,,,S08000016,,S12000026,,S37000025,,S01012384,,S02002321,
23,B114H,Kelso Hospital,Inch Road,Kelso,,,TD5 7JP,,,S08000016,,S12000026,,S37000025,,S01012337,,S02002310,
24,B118H,Hay Lodge Hospital,Neidpath Road,Peebles,,,EH458JG,,,S08000016,,S12000026,,S37000025,,S01012253,,S02002293,
25,B120H,Borders General Hospital,Melrose,,,,TD6 9BS,,,S08000016,,S12000026,,S37000025,,S01012377,,S02002320,
26,B121H,Hawick Psychiatric Day Hospital,C/O Hawick Community Hospital,Victoria Road,Hawick,,TD9 7AH,,,S08000016,,S12000026,,S37000025,,S01012372,,S02002319,
27,B122H,Hawick Psychogeriatric Day Hospital,West Port,Drumlanrig Square,Hawick,,TD9 0BG,,,S08000016,,S12000026,,S37000025,,S01012370,,S02002318,
28,B123H,Peebles Psychogeriatric Day Hospital,Firholm,Innerleithen Road,Peebles,,EH458BD,,,S08000016,,S12000026,,S37000025,,S01012255,,S02002293,
29,B124H,Galashiels Psychogeriatric Day Hospital,Sime Place,Galashiels,,,TD1 1ST,,,S08000016,,S12000026,,S37000025,,S01012275,,S02002297,
30,B126H,Peebles Psychiatric Day Hospital,Tweed Green,Peebles,,,EH458AR,19930628,20151201,S08000016,,S12000026,,S37000025,,S01012255,,S02002293,
31,B127H,Eyemouth Day Hospital,Houndlaw Park,Eyemouth,,,TD145DA,19950601,,S08000016,,S12000026,,S37000025,,S01012316,,S02002306,
32,B128H,Crumhaugh House,Crumhaugh Road,Hawick,,,TD9 0BA,19990501,,S08000016,,S12000026,,S37000025,,S01012371,,S02002318,
33,B129H,Melburn Lodge,Borders General Hospital,Melrose,,,TD6 9BS,20170401,,S08000016,,S12000026,,S37000025,,S01012377,,S02002320,
34,B130H,Huntlyburn House,The Cottages,Huntlyburn,Melrose,,TD6 9BD,19991201,,S08000016,,S12000026,,S37000025,,S01012377,,S02002320,
35,C101H,Argyll and Bute Hospital,Blarbuie Road,Lochgilphead,,,PA318LD,,,S08000022,,S12000035,,S37000004,,S01007317,,S02001376,
36,C106H,Cowal Community Hospital,360 Argyll Street,Dunoon,,,PA237RL,,,S08000022,,S12000035,,S37000004,,S01007365,,S02001385,
37,C108H,Islay Hospital,Gortonvogie Road,Bowmore,Isle Of Islay,,PA437JD,,,S08000022,,S12000035,,S37000004,,S01007327,,S02001378,
38,C113H,"Victoria Hospital, Rothesay",High Street,Rothesay,,,PA209JJ,,,S08000022,,S12000035,,S37000004,,S01007348,,S02001382,
39,C117J,Dunaros Residential Home,Aros,Isle Of Mull,,,PA726JF,,20121130,S08000022,,S12000035,,S37000004,,S01007285,,S02001370,
40,C121H,Lorn & Islands Hospital,Glengallan Road,Oban,,,PA344HH,19950213,,S08000022,,S12000035,,S37000004,,S01007291,,S02001371,
41,C122H,Campbeltown Hospital,Ralston Road,Campbeltown,,,PA286LE,19930111,,S08000022,,S12000035,,S37000004,,S01007337,,S02001380,
42,C204H,Dumbarton Joint Hospital/Riverview Resource Centre,Cardross Road,Dumbarton,,,G82 5JA,,,S08000031,,S12000039,,S37000029,,S01013202,,S02002472,
43,C206H,Vale of Leven General Hospital,North Main Street,Alexandria,,,G83 0UA,,,S08000031,,S12000039,,S37000029,,S01013228,,S02002476,
44,C207H,Victoria Integrated Care Unit,93 East King Street,Helensburgh,,,G84 7BU,,20170525,S08000022,,S12000035,,S37000004,,S01007400,,S02001391,
45,C306V,Ardgowan Hospice,12 Nelson Street,Greenock,,,PA151TS,19900112,,S27000001,,S12000018,,,z,S01010873,,S02002043,
46,C310H,Ravenscraig Hospital,Inverkip Road,Greenock,,,PA169HA,,20191126,S08000031,,S12000018,,S37000017,,S01010823,,S02002035,
47,C313H,Inverclyde Royal Hospital,Larkfield Road,Greenock,,,PA160XN,,,S08000031,,S12000018,,S37000017,,S01010856,,S02002041,
48,C403H,Dykebar Hospital,Grahamston Road,Paisley,,,PA2 7DE,,,S08000031,,S12000038,,S37000024,,S01012027,,S02002255,
49,C407V,St Vincent's Hospice,Midton Road,Howwood,,,PA9 1AF,19880125,,S27000001,,S12000038,,,z,S01012027,,S02002255,
50,C413V,Accord Hospice,Hawkhead Hospital,Hawkhead Road,Paisley,,PA2 7BW,,,S27000001,,S12000038,,,z,S01012117,,S02002272,
51,C418H,Royal Alexandra Hospital,Corsebar Road,Paisley,,,PA2 9PN,,,S08000031,,S12000038,,S37000024,,S01012107,,S02002270,
52,C419H,Larkfield Unit,Inverclyde Royal Hospital,Larkfield Road,Greenock,,PA160XN,20010201,,S08000031,,S12000018,,S37000017,,S01010856,,S02002041,
53,C420H,Blythswood House,Fulbar Lane,Renfrew,,,PA4 8NT,20010201,,S08000031,,S12000038,,S37000024,,S01012186,,S02002282,
54,D102H,Golden Jubilee National Hospital,Agamemnon Street,Clydebank,,,G81 4DY,20020630,,SB0801,,S12000039,,S37000029,,S01013131,,S02002461,
55,D201N,Domiciliary Location,Scotland,,,,,,,,z,,z,,z,,z,,z
56,E001V,Woodlands Hospital,Darlington,,,,,,,S27000001,,,z,,z,,z,,z
57,E006V,Washington Hospital,Picktree Lane,Washington,,,NE389JZ,,,S27000001,,,z,,z,,z,,z
58,F701H,Cameron Hospital,Cameron Bridge,Windygates,Fife,,KY8 5RR,,,S08000029,,S12000047,,S37000032,,S01009616,,S02001812,
59,F703H,Netherlea Hospital,65 West Road,Newport-On-Tay,,,DD6 8HR,,20111130,S08000029,,S12000047,,S37000032,,S01009752,,S02001841,
60,F704H,"Victoria Hospital, Kirkcaldy",Hayfield Road,Kirkcaldy,,,KY2 5AH,,,S08000029,,S12000047,,S37000032,,S01009522,,S02001793,
61,F705H,Victoria Maternity Unit,Hayfield Road,Kirkcaldy,,,KY2 5AH,,,S08000029,,S12000047,,S37000032,,S01009522,,S02001793,
62,F708H,Adamson Hospital,Bank Street,Cupar,,,KY154JG,,,S08000029,,S12000047,,S37000032,,S01009687,,S02001827,
63,F709H,St Andrews Community Hospital,Largo Road,St Andrews,,,KY168AR,,,S08000029,,S12000047,,S37000032,,S01009730,,S02001836,
64,F710H,Randolph Wemyss Memorial Hospital,Wellesley Road,Buckhaven,,,KY8 1HU,,,S08000029,,S12000047,,S37000032,,S01009619,,S02001813,
65,F711H,Whytemans Brae Hospital,Whytemans Brae,Kirkcaldy,,,KY1 2ND,,,S08000029,,S12000047,,S37000032,,S01009522,,S02001793,
66,F712H,Stratheden Hospital,Stratheden,By Springfield,Cupar,,KY155RR,,,S08000029,,S12000047,,S37000032,,S01009681,,S02001826,
67,F714H,Weston Day Hospital,West Port,Cupar,,,KY154AN,,,S08000029,,S12000047,,S37000032,,S01009689,,S02001827,
68,F716H,Glenrothes Hospital,Lodge Rise,Glenrothes,Fife,,KY7 5TG,,,S08000029,,S12000047,,S37000032,,S01009590,,S02001807,
69,F805H,Queen Margaret Hospital,Whitefield Road,Dunfermline,,,KY120SU,,,S08000029,,S12000047,,S37000032,,S01009326,,S02001750,
70,F810H,Lynebank Hospital,Halbeath Road,Dunfermline,,,KY118JH,,,S08000029,,S12000047,,S37000032,,S01009404,,S02001768,
71,F821V,Forth Bay Care Home,Walker Street,Kincardine,,,FK104NT,,,S27000001,,S12000047,,,z,S01009267,,S02001738,
72,G101Z,NHS Louisa Jordan (Covid-19),Scottish Event Campus,Exhibition Way,Glasgow,,G3  8YW,,,SN0811,,S12000049,,S37000034,,S01010283,,S02001936,
73,G105V,Greenfield Park Care Centre,291 Myreside Street,Glasgow,,,G32 6BX,19940124,,S27000001,,S12000049,,,z,S01010149,,S02001912,
74,G106H,Glasgow Dental Hospital and School,378 Sauchiehall Street,Glasgow,,,G2  3JZ,,,S08000031,,S12000049,,S37000034,,S01010267,,S02001933,
75,G107H,Glasgow Royal Infirmary,84 Castle Street,Glasgow,,,G4  0SF,,,S08000031,,S12000049,,S37000034,,S01010262,,S02001932,
76,G108H,The Princess Royal Maternity Unit,16 Alexandra Parade,Glasgow,,,G31 2ER,,,S08000031,,S12000049,,S37000034,,S01010262,,S02001932,
77,G109H,Lightburn Hospital,966 Carntyne Road,Glasgow,,,G32 6NB,,,S08000031,,S12000049,,S37000034,,S01010159,,S02001914,
78,G111H,Parkhead Hospital,81 Salamanca Street,Glasgow,,,G31 5ES,19880901,20180601,S08000031,,S12000049,,S37000034,,S01010052,,S02001894,
79,G112H,Parkview Resource Centre,152 Wellshot Road,Glasgow,,,G32 7AX,,,S08000031,,S12000049,,S37000034,,S01010144,,S02001911,
80,G113H,Auchinlea Resource Centre,Auchinlea House,Auchinlea Road,Glasgow,,G34 9HQ,19931101,,S08000031,,S12000049,,S37000034,,S01010114,,S02001906,
81,G203V,Four Hills Nursing Home,8 Hazlitt Street,Glasgow,,,G20 9NU,,,S27000001,,S12000049,,,z,S01010327,,S02001942,
82,G207H,Stobhill Hospital,133 Balornock Road,Glasgow,,,G21 3UW,,,S08000031,,S12000049,,S37000034,,S01010209,,S02001922,
83,G212H,Shawpark Resource Centre,41 Shawpark Street,Glasgow,,,G20 9DR,19930927,,S08000031,,S12000049,,S37000034,,S01010359,,S02001949,
84,G214H,Springpark Resource Centre/Day Hosp,101 Denmark Street,Glasgow,,,G22 5EU,19950401,,S08000031,,S12000049,,S37000034,,S01010224,,S02001924,
85,G302H,Leverndale Hospital,510 Crookston Road,Glasgow,,,G53 7TU,,,S08000031,,S12000049,,S37000034,,S01009804,,S02001849,
86,G303H,Mearnskirk House,Newton Mearns,Glasgow,,,G77 5RZ,,,S08000031,,S12000011,,S37000011,,S01008349,,S02001564,
87,G306H,New Victoria Hospital,55 Grange Road,Glasgow,,,G42 9LF,,,S08000031,,S12000049,,S37000034,,S01009904,,S02001867,
88,G307H,Mansionhouse Unit,Victoria Infirmary,Mansionhouse Road,Glasgow,,G41 3DX,,20160513,S08000031,,S12000049,,S37000034,,S01009928,,S02001872,
89,G309H,Eastvale Resource Centre,130a Stonelaw Road,Rutherglen,Glasgow,,G73 2PQ,19950711,20140331,S08000031,,S12000029,,S37000028,,S01012860,,S02002409,
90,G323V,Priory Hospital Glasgow,38-40 Mansionhouse Road,Glasgow,,,G41 3DW,,,S27000001,,S12000049,,,z,S01009928,,S02001872,
91,G405H,Queen Elizabeth University Hospital,1345 Govan Road,Glasgow,,,G51 4TF,,,S08000031,,S12000049,,S37000034,,S01009833,,S02001855,
92,G408H,Florence Street Mental Health Resource Centre,26 Florence Street,Glasgow,,,G5  0YX,,,S08000031,,S12000049,,S37000034,,S01010025,,S02001889,
93,G410H,Shawmill Resource Centre,35 Well Green,Glasgow,,,G43 1RR,19950515,,S08000031,,S12000049,,S37000034,,S01009935,,S02001873,
94,G412V,Ross Hall Hospital,221 Crookston Road,Glasgow,,,G52 3NQ,,,S27000001,,S12000049,,,z,S01009817,,S02001852,
95,G424V,Darnley Court Nursing Home,787 Nitshill Road,Glasgow,,,G53 7RR,19931124,,S27000001,,S12000049,,,z,S01009769,,S02001844,
96,G501H,Blawarthill Hospital,129 Holehouse Drive,Glasgow,,,G13 3TG,,20160407,S08000031,,S12000049,,S37000034,,S01010454,,S02001967,
97,G502V,Nuffield Health Glasgow Hospital,25 Beaconsfield Road,Glasgow,,,G12 0PJ,,,S27000001,,S12000049,,,z,S01010365,,S02001950,
98,G503H,Drumchapel Hospital,129 Drumchapel Road,Glasgow,,,G15 6PX,,20170916,S08000031,,S12000049,,S37000034,,S01010489,,S02001974,
99,G505H,Gartnavel Royal Hospital,1055 Great Western Road,Glasgow,,,G12 0XH,,,S08000031,,S12000049,,S37000034,,S01010412,,S02001958,
100,G513H,Royal Hospital for Children,1345 Govan Road,Glasgow,,,G51 4TF,,,S08000031,,S12000049,,S37000034,,S01009833,,S02001855,
101,G515H,Queen Mother's Hospital,Yorkhill,Dalnair Street,Glasgow,,G3  8SJ,,20160405,S08000031,,S12000049,,S37000034,,S01010284,,S02001936,
102,G516H,West Glasgow,1053 Great Western Road,Glasgow,,,G12 0YN,,,S08000031,,S12000049,,S37000034,,S01010412,,S02001958,
103,G517H,Beatson West of Scotland Cancer Centre,1053 Great Western Road,Glasgow,,,G12 0YN,,,S08000031,,S12000049,,S37000034,,S01010412,,S02001958,
104,G518V,Quayside Nursing Home,250 Halley Street,Glasgow,,,G13 4DT,,,S27000001,,S12000049,,,z,S01010445,,S02001965,
105,G541V,Birdston Nursing Home,Birdston Road,Milton Of Campsie,Glasgow,,G66 8BY,19980701,,S27000001,,S12000045,,,z,S01008153,,S02001532,
106,G557V,Rowantree/Rodgerpark Care Home,10 Rodger Drive,Rutherglen,Glasgow,,G73 3QZ,20030904,20140619,S27000001,,S12000029,,,z,S01012860,,S02002409,
107,G583V,Marie Curie Hospice,133 Balornock Road,Glasgow,,,G21 3US,20101025,,S27000001,,S12000049,,,z,S01010209,,S02001922,
108,G584V,"Robin House, Children's Hospice Association Scotland",2 Boturich,Balloch,Alexandria,Dunbartonshire,G83 8LX,20080101,,S27000001,,S12000039,,,z,S01013241,,S02002477,
109,G596H,Anvil Resource Centre,81 Salamanca Street,Glasgow,,,G31 5ES,19960201,,S08000031,,S12000049,,S37000034,,S01010052,,S02001894,
110,G597H,Goldenhill Resource Centre,2 Stewart Drive,Hardgate,Clydebank,,G81 6AQ,19960401,20140708,S08000031,,S12000039,,S37000029,,S01013150,,S02002464,
111,G598H,Arran Resource Centre,121 Orr Street,Bridgeton,Glasgow,,G40 2BJ,19960201,,S08000031,,S12000049,,S37000034,,S01010055,,S02001894,
112,G599H,Riverside Resource Centre,547 Dumbarton Road,Glasgow,,,G11 6HU,19960603,,S08000031,,S12000049,,S37000034,,S01010388,,S02001954,
113,G600H,Festival Business Park,150 Brand Street,Glasgow,,,G51 1DH,,,S08000031,,S12000049,,S37000034,,S01009862,,S02001860,
114,G602H,Eastwood Resource Centre,38 Seres Rd,Clarkston,Glasgow,,G76 7QF,,,S08000031,,S12000011,,S37000011,,S01008382,,S02001569,
115,G603H,Arndale Resource Centre,80/90 Kinfauns Drive,Glasgow,,,G15 7TS,19980701,,S08000031,,S12000049,,S37000034,,S01010499,,S02001976,
116,G604V,Prince and Princess of Wales Hospice,Bellahouston Park,Dumbreck Road,Glasgow,,G41 5BW,20180801,,S27000001,,S12000049,,,z,S01009852,,S02001858,
117,G606H,Overtoun Court,Greater Glasgow Health Board,65 Rodger Drive,Rutherglen,,G73 3QB,19990401,20131231,S08000032,,S12000029,,S37000028,,S01012860,,S02002409,
118,G607H,Woodlands Resource Centre,15-17 Waterloo Close,Kirkintilloch,,,G66 2HL,19990401,,S08000031,,S12000045,,S37000009,,S01008135,,S02001527,
119,G608H,2-4 Waterloo Close,2-4 Waterloo Close,Kirkintilloch,,,G66 2HL,19990401,,S08000031,,S12000045,,S37000009,,S01008135,,S02001527,
120,G609H,The Orchards,135 Panmure Street,Glasgow,,,G20 7SJ,19990401,,S08000031,,S12000049,,S37000034,,S01010314,,S02001940,
121,G610H,Pineview,Switchback Road,Bearsden,Glasgow,,G61 1QN,19990401,,S08000031,,S12000045,,S37000009,,S01008072,,S02001515,
122,G611H,Netherton,19 Blackwood Street,Glasgow,,,G13 1AL,20010707,,S08000031,,S12000049,,S37000034,,S01010472,,S02001971,
123,G612H,Rowanbank Clinic,Balornock Road,Glasgow,,,G21 3UL,20070718,,S08000031,,S12000049,,S37000034,,S01010198,,S02001919,
124,G613H,Skye House,133 Balornock Road,Glasgow,,,G21 3UZ,20080401,,S08000031,,S12000049,,S37000034,,S01010209,,S02001922,
125,G614H,Orchard View,Inverclyde Adult And Older Peoples,Continuing Care Hospital,Larkfield Road,Greenock,PA160XN,20170801,,S08000031,,S12000018,,S37000017,,S01010856,,S02002041,
126,G615H,The Mary Aitkenhead Centre,St Margaret's Hospice,East Barns Street,Clydebank,,G81 1EG,20170101,,S08000031,,S12000039,,S37000029,,S01013125,,S02002460,
127,H101H,Dunbar Hospital,Thurso,Caithness,,,KW147XE,,,S08000022,,S12000017,,S37000016,,S01010797,,S02002030,
128,H103H,Caithness General Hospital,Cliff Road,Wick,,,KW1 5NS,,,S08000022,,S12000017,,S37000016,,S01010781,,S02002027,
129,H104H,Wick Town and County Hospital,Hospital Road,Wick,Caithness,,KW1 5NQ,,,S08000022,,S12000017,,S37000016,,S01010780,,S02002027,
130,H106H,Lawson Memorial Hospital,Station Road,Golspie,,,KW106SS,,,S08000022,,S12000017,,S37000016,,S01010766,,S02002025,
131,H108H,"Migdale Hospital, Bonar Bridge",Bonar Bridge,Ardgay,,,IV243AP,,20110630,S08000022,,S12000017,,S37000016,,S01010763,,S02002024,
132,H201H,RNI Community Hospital,Ness Walk,Inverness,,,IV3 5SF,,,S08000022,,S12000017,,S37000016,,S01010631,,S02002000,
133,H202H,Raigmore Hospital,Inverness,,,,IV2 3UJ,,,S08000022,,S12000017,,S37000016,,S01010624,,S02001998,
134,H208H,Nairn Town and County Hospital,Cawdor Road,Nairn,,,IV125EE,,,S08000022,,S12000017,,S37000016,,S01010556,,S02001986,
135,H210H,Ian Charles Community Hospital,Castle Road East,Grantown-On-Spey,,,PH263HR,,,S08000022,,S12000017,,S37000016,,S01010546,,S02001984,
136,H211H,St Vincent's Hospital,Gynack Road,Kingussie,,,PH211EX,,,S08000022,,S12000017,,S37000016,,S01010533,,S02001982,
137,H212H,Belford Hospital,Belford Road,Fort William,,,PH336BS,,,S08000022,,S12000017,,S37000016,,S01010522,,S02001980,
138,H214H,Mackinnon Memorial Hospital,Broadford,Isle Of Skye,,,IV499AA,,,S08000022,,S12000017,,S37000016,,S01010673,,S02002008,
139,H215H,Portree Hospital,Portree,Isle Of Skye,,,IV519BZ,,,S08000022,,S12000017,,S37000016,,S01010679,,S02002009,
140,H217H,Ross Memorial Hospital,Ferry Road,Dingwall,,,IV159QT,,,S08000022,,S12000017,,S37000016,,S01010716,,S02002017,
141,H219H,County Community Hospital Invergordon,Invergordon,,,,IV180JR,,,S08000022,,S12000017,,S37000016,,S01010744,,S02002021,
142,H220V,Highland Hospice,Ness House,1 Bishops Road,Inverness,,IV3 5SB,,,S27000001,,S12000017,,,z,S01010631,,S02002000,
143,H221H,Osprey House,Raigmore Avenue,Inverness,,,IV2 3DZ,19950213,,S08000022,,S12000017,,S37000016,,S01010624,,S02001998,
144,H223H,New Craigs Hospital,Leachkin Road,Inverness,,,IV3 8PJ,20000714,,S08000022,,S12000017,,S37000016,,S01010650,,S02002004,
145,H224H,Mid-Argyll Community Hospital and Integrated Care Centre,Lochgilphead,Argyll,,,PA318JZ,20060701,,S08000022,,S12000035,,S37000004,,S01007317,,S02001376,
146,H226H,"Migdale Hospital, Sutherland",Cherry Grove,Bonar Bridge,Sutherland,,IV243ER,20110601,,S08000022,,S12000017,,S37000016,,S01010763,,S02002024,
147,H227H,Mull and Iona Community Hospital,Java Road,Craignure,Isle Of Mull,,PA656BH,20120701,,S08000022,,S12000035,,S37000004,,S01007288,,S02001370,
148,H239V,Howard Doris Centre,Millbrae,Lochcarron,Ross-Shire,,IV548YQ,19970401,,S27000001,,S12000017,,,z,S01010689,,S02002011,
149,L102K,St Andrew's Hospice,1 Henderson Street,Airdrie,,,ML6 6DJ,,,S08000032,,S12000050,,S37000035,,S01011643,,S02002185,
150,L103H,Coathill Hospital,Hospital Street,Coatbridge,,,ML5 4DN,,,S08000032,,S12000050,,S37000035,,S01011570,,S02002171,
151,L104H,Victoria Memorial Cottage Hospital,19 Glasgow Road,Kilsyth,,,G65 9AG,,,S08000032,,S12000050,,S37000035,,S01011797,,S02002211,
152,L105H,Wester Moffat Hospital,Towers Road,Airdrie,,,ML6 8LW,,,S08000032,,S12000050,,S37000035,,S01011628,,S02002182,
153,L106H,University Hospital Monklands,Monkscourt Avenue,Airdrie,,,ML6 0JS,,,S08000032,,S12000050,,S37000035,,S01011652,,S02002186,
154,L112V,Cumbernauld Nursing Home,Abbotsford Road,Greenfaulds,Cumbernauld,,G67 4BW,,,S27000001,,S12000050,,,z,S01011738,,S02002200,
155,L203H,Cleland Hospital,Cleland,Motherwell,Lanarkshire,,ML1 5NR,,,S08000032,,S12000050,,S37000035,,S01011451,,S02002150,
156,L206H,Kello Hospital,Johns Loan,Biggar,,,ML126AF,,,S08000032,,S12000029,,S37000028,,S01012576,,S02002355,
157,L207H,Lady Home Cottage Hospital,Douglas,Lanark,,,ML110RH,,,S08000032,,S12000029,,S37000028,,S01012638,,S02002368,
158,L209H,Lockhart Hospital,Whitelees Road,Lanark,,,ML117RX,,,S08000032,,S12000029,,S37000028,,S01012628,,S02002366,
159,L210V,Brain Injury Rehabilitation Unit,Murdostoun Castle,Bonkle,"Newmains, Wishaw",,ML2 7BY,19900528,,S27000001,,S12000050,,,z,S01011421,,S02002145,
160,L211H,Roadmeetings Hospital,Roadmeetings,Carluke,,,ML8 4PS,,,S08000032,,S12000029,,S37000028,,S01012617,,S02002363,
161,L213V,Hatton Lea Nursing Home,2 Reema Road,Bellshill,,,ML4 1RR,,,S27000001,,S12000050,,,z,S01011525,,S02002164,
162,L215V,Parksprings Care Centre,Frood Street,Motherwell,,,ML1 3TA,,,S27000001,,S12000050,,,z,S01011490,,S02002159,
163,L216H,Kirklands Hospital,Fallside Road,Bothwell,,,G71 8BB,,,S08000032,,S12000029,,S37000028,,S01012806,,S02002400,
164,L218H,Airbles Road Centre,Airbles Road,Motherwell,,,ML1 2TJ,19900401,,S08000032,,S12000050,,S37000035,,S01011380,,S02002138,
165,L302H,University Hospital Hairmyres,Eaglesham Road,East Kilbride,,,G75 8RG,,,S08000032,,S12000029,,S37000028,,S01012955,,S02002427,
166,L304H,Stonehouse Hospital,Strathaven Road,Stonehouse,,,ML9 3NT,,,S08000032,,S12000029,,S37000028,,S01012678,,S02002376,
167,L305H,Udston Hospital,Farm Road,Hamilton,,,ML3 9LA,,,S08000032,,S12000029,,S37000028,,S01012774,,S02002395,
168,L307H,Beckford Lodge,Caird Street,Hamilton,,,ML3 0AZ,19980824,,S08000032,,S12000029,,S37000028,,S01012794,,S02002398,
169,L308H,University Hospital Wishaw,50 Netherton Street,Wishaw,,,ML2 0DP,20010525,,S08000032,,S12000050,,S37000035,,S01011387,,S02002139,
170,L330V,Carrickstone House & Day Hospital,1 Ratho Drive,Cumbernauld,,,G68 0GA,,,S27000001,,S12000050,,,z,S01011776,,S02002207,
171,L365V,Rutherglen Care Home,10 Rodger Drive,Rutherglen,Lanarkshire,,G73 3QZ,20140401,,S27000001,,S12000029,,,z,S01012860,,S02002409,
172,N101H,Aberdeen Royal Infirmary,Foresterhill Road,Aberdeen,,,AB252ZN,,,S08000020,,S12000033,,S37000001,,S01006563,,S02001245,
173,N101V,Albyn Hospital,21 Albyn Place,Aberdeen,,,AB101RW,,,S27000001,,S12000033,,,z,S01006571,,S02001247,
174,N102H,Woodend General Hospital,Aberdeen,,,,AB156XS,,,S08000020,,S12000033,,S37000001,,S01006555,,S02001244,
175,N103H,City Hospital,Urquhart Road,Aberdeen,,,AB245AU,,,S08000020,,S12000033,,S37000001,,S01006641,,S02001260,
176,N104H,Woolmanhill Hospital,Skene Street,Aberdeen,,,AB251LD,,,S08000020,,S12000033,,S37000001,,S01006648,,S02001261,
177,N111H,Hyperbaric Centre,123 Ashgrove Road West,Aberdeen,,,AB165FA,,,S08000020,,S12000033,,S37000001,,S01006694,,S02001269,
178,N121H,Royal Aberdeen Children's Hospital,Westburn Drive,Aberdeen,,,AB252ZG,,,S08000020,,S12000033,,S37000001,,S01006563,,S02001245,
179,N151H,Aboyne Hospital,Bellwood Road,Aboyne,,,AB345HQ,,,S08000020,,S12000034,,S37000002,,S01006799,,S02001286,
180,N161H,Aberdeen Maternity Hospital,Foresterhill,Aberdeen,,,AB252ZL,,,S08000020,,S12000033,,S37000001,,S01006563,,S02001245,
181,N181H,Glen O'Dee Hospital,Banchory,,,,AB315SA,,,S08000020,,S12000034,,S37000002,,S01006872,,S02001299,
182,N183H,Roxburghe House,Cornhill Site,Ashgrove Road,Aberdeen,,AB252ZH,,,S08000020,,S12000033,,S37000001,,S01006655,,S02001262,
183,N184H,Maidencraig House,Woodend Hospital,Eday Road,,,AB156XS,,,S08000020,,S12000033,,S37000001,,S01006555,,S02001244,
184,N198H,Royal Cornhill Hospital,Cornhill Road,Aberdeen,,,AB252ZH,,,S08000020,,S12000033,,S37000001,,S01006655,,S02001262,
185,N331H,Inverurie Hospital,Upperboat Road,Inverurie,,,AB513UL,,,S08000020,,S12000034,,S37000002,,S01006905,,S02001304,
186,N332H,Insch & District War Memorial Hosp.,Rannes Street,Insch,,,AB526JJ,,,S08000020,,S12000034,,S37000002,,S01007001,,S02001319,
187,N333H,Peterhead Community Hospital,Links Terrace,Peterhead,,,AB422XB,,,S08000020,,S12000034,,S37000002,,S01007080,,S02001335,
188,N334H,Fraserburgh Hospital,Lochpots Road,Fraserburgh,,,AB439NF,,,S08000020,,S12000034,,S37000002,,S01007123,,S02001342,
189,N335H,Jubilee Hospital,Bleachfield Street,Huntly,,,AB548EX,,,S08000020,,S12000034,,S37000002,,S01007010,,S02001321,
190,N336H,Turriff Cottage Hospital,Balmellie Road,Turriff,,,AB534DQ,,,S08000020,,S12000034,,S37000002,,S01007022,,S02001323,
191,N337H,Chalmers Hospital,Banff,,,,AB451JA,,,S08000020,,S12000034,,S37000002,,S01007032,,S02001326,
192,N352H,Ugie Hospital,Ugie Road,Peterhead,,,AB421LZ,,,S08000020,,S12000034,,S37000002,,S01007094,,S02001337,
193,N353H,Campbell Hospital,Portsoy,,,,AB452TR,,20110430,S08000020,,S12000034,,S37000002,,S01007025,,S02001324,
194,N410V,Cathay Nursing Home,St Leonards Road,Forres,,,IV362RE,,,S27000001,,S12000020,,,z,S01011167,,S02002096,
195,N411H,Dr Gray's Hospital,Elgin,Morayshire,,,IV301SN,,,S08000020,,S12000020,,S37000019,,S01011118,,S02002087,
196,N431H,Seafield Hospital,Barrhill Road,Buckie,,,AB561SF,,,S08000020,,S12000020,,S37000019,,S01011081,,S02002079,
197,N432H,Stephen Cottage Hospital,Stephen Avenue,Dufftown,,,AB554BH,,,S08000020,,S12000020,,S37000019,,S01011049,,S02002073,
198,N433H,Turner Memorial Hospital,Turner Street,Keith,,,AB555DJ,,,S08000020,,S12000020,,S37000019,,S01011062,,S02002076,
199,N434H,Leanchoil Hospital,91 St Leonard's Road,Forres,,,IV362RF,,,S08000020,,S12000020,,S37000019,,S01011167,,S02002096,
200,N451H,Fleming Cottage Hospital,Queens Road,Aberlour,,,AB389PR,,,S08000020,,S12000020,,S37000019,,S01011052,,S02002074,
201,N465R,Bennachie View Care Home,Balhalgardy Rise,Inverurie,Aberdeenshire,,AB515DF,20150909,,S08000020,,S12000034,,S37000002,,S01006913,,S02001305,
202,N492H,Rehabilitation Hospital,15 Polmuir Road,Aberdeen,,,AB117RS,19970401,,S08000020,,S12000033,,S37000001,,S01006598,,S02001252,
203,N494H,Kincardine Community Hospital,Kirkton Road,Stonehaven,,,AB392NJ,19980301,,S08000020,,S12000034,,S37000002,,S01006826,,S02001291,
204,N495H,Pluscarden Clinic,Dr Gray's Hospital,Elgin,,,IV301SN,19980701,,S08000020,,S12000020,,S37000019,,S01011118,,S02002087,
205,N496H,375 Great Western Lodge,375 Great Western Road,Aberdeen,,,AB106NU,19990301,,S08000020,,S12000033,,S37000001,,S01006533,,S02001240,
206,N497H,Cameron Court,Plasmon Lane,Forres,Morayshire,,IV361NL,20000201,20110214,S08000020,,S12000020,,S37000019,,S01011165,,S02002095,
207,N498V,Auchtercrag Care Home,Commercial Road,Ellon,,,AB419BD,,,S27000001,,S12000034,,,z,S01006969,,S02001314,
208,N499H,Elmwood,Ashgrove Road,Aberdeen,,,AB253BW,20030820,,S08000020,,S12000033,,S37000001,,S01006655,,S02001262,
209,N500H,Aberdeen Community Health and Care Village,50 Frederick Street,Aberdeen,,,AB245HY,20130913,,S08000020,,S12000033,,S37000001,,S01006639,,S02001259,
210,N501H,Rosewell House (NHS Wards),194 Kings Gate,Aberdeen,,,AB156XN,,,S08000020,,S12000033,,S37000001,,S01006553,,S02001244,
211,N538V,Varis Court,Varis Court,Leask Road,Forres,,IV361RA,20180701,,S27000001,,S12000020,,,z,S01011154,,S02002094,
212,N683C,Forres Health & Care Centre,Grantown Road,Forres,,,IV361JG,20140908,,S08000020,,S12000020,,S37000019,,S01011163,,S02002095,
213,R103H,The Balfour,Foreland Road,Kirkwall,Orkney,,KW151NZ,20190501,,S08000025,,S12000023,,S37000022,,S01011817,,S02002215,
214,S102H,Belhaven Hospital,Hospital Road,Dunbar,,,EH421TR,,,S08000024,,S12000010,,S37000010,,S01008286,,S02001554,
215,S103H,Corstorphine Hospital,136 Corstorphine Road,Edinburgh,,,EH126TT,,,S08000024,,S12000036,,S37000012,,S01008973,,S02001679,
216,S107H,Edenhall Hospital,Edenhall Road,Musselburgh,,,EH217TZ,,,S08000024,,S12000010,,S37000010,,S01008190,,S02001538,
217,S108H,Edington Cottage Hospital,54 St Baldred's Road,North Berwick,,,EH394PU,,,S08000024,,S12000010,,S37000010,,S01008273,,S02001552,
218,S109H,Herdmanflat Hospital,Aberlady Road,Haddington,,,EH413BU,,,S08000024,,S12000010,,S37000010,,S01008253,,S02001548,
219,S113H,Roodlands General Hospital,Hospital Road,Haddington,,,EH413PF,,20190930,S08000024,,S12000010,,S37000010,,S01008252,,S02001548,
220,S114H,"Royal Victoria Hospital, Edinburgh",13 Craigleith Road,Edinburgh,,,EH4 2DN,,,S08000024,,S12000036,,S37000012,,S01008887,,S02001663,
221,S116H,Western General Hospital,Crewe Road South,Edinburgh,,,EH4 2XU,,,S08000024,,S12000036,,S37000012,,S01008890,,S02001663,
222,S121K,St Columba's Hospice,15 Boswall Road,Edinburgh,,,EH5 3RW,,,S08000024,,S12000036,,S37000012,,S01008828,,S02001651,
223,S124V,Murrayfield Hospital,122 Corstorphine Road,Edinburgh,,,EH126UD,,,S27000001,,S12000036,,,z,S01008881,,S02001662,
224,S201H,Astley Ainslie Hospital,Grange Loan,Edinburgh,,,EH9 2HL,,,S08000024,,S12000036,,S37000012,,S01008624,,S02001615,
225,S203K,Fairmile Marie Curie Centre,45 Frogston Road West,Edinburgh,,,EH107DR,,,S08000024,,S12000036,,S37000012,,S01008545,,S02001599,
226,S206H,Edinburgh Dental Institute,4th Floor,Lauriston Building,Lauriston Place,Edinburgh,EH3 9HA,,,S08000024,,S12000036,,S37000012,,S01008667,,S02001621,
227,S209H,Liberton Hospital,Lasswade Road,Edinburgh,,,EH166UB,,,S08000024,,S12000036,,S37000012,,S01008575,,S02001606,
228,S217H,Royal Edinburgh Hospital,23 Tipperlinn Road,Edinburgh,,,EH105HF,,,S08000024,,S12000036,,S37000012,,S01008632,,S02001616,
229,S232H,Cambridge Street Day Centre,5/7 Cambridge Street,Edinburgh,,,EH1 2DY,,,S08000024,,S12000036,,S37000012,,S01008660,,S02001620,
230,S234H,William Fraser Centre,Tipperlinn Road,Edinburgh,,,EH105HF,19941201,,S08000024,,S12000036,,S37000012,,S01008632,,S02001616,
231,S235H,The Islay Centre,Tipperlinn Road,Edinburgh,,,EH105HF,19951016,,S08000024,,S12000036,,S37000012,,S01008632,,S02001616,
232,S241H,Bonnyrigg Day Centre,Old Library,Bonnyrigg,,,EH224RT,,,S08000024,,S12000019,,S37000018,,S01011032,,S02002070,
233,S243H,Ballenden House,28/32 Howden Street,Edinburgh,,,EH8 9HL,19940523,,S08000024,,S12000036,,S37000012,,S01008681,,S02001623,
234,S305H,St Michael's Hospital,Edinburgh Road,Linlithgow,,,EH496QS,,,S08000024,,S12000040,,S37000030,,S01013441,,S02002507,
235,S306H,Tippethill Hospital,Bathgate,West Lothian,,,EH483BQ,,,S08000024,,S12000040,,S37000030,,S01013380,,S02002499,
236,S308H,St John's Hospital,Howden West,Livingston,West Lothian,,EH546PP,19891030,,S08000024,,S12000040,,S37000030,,S01013309,,S02002488,
237,S309H,Inchkeith House,137 Leith Walk,Edinburgh,,,EH6 8NP,19960401,,S08000024,,S12000036,,S37000012,,S01008796,,S02001644,
238,S310H,Ferryfield House,100 Pilton Drive,Edinburgh,,,EH5 2HF,19961001,,S08000024,,S12000036,,S37000012,,S01008911,,S02001667,
239,S312H,Learning Disabilities Service Healthcare Houses,Lothian,,,,EH105EZ,19970407,,S08000024,,S12000036,,S37000012,,S01008632,,S02001616,
240,S312R,Craigshill Care Home,Maple Grove,Livingston,West Lothian,,EH545JE,20040203,,S08000024,,S12000040,,S37000030,,S01013308,,S02002487,
241,S313H,Ellen's Glen House,72 Carnbee Avenue,Edinburgh,,,EH166FF,19991115,,S08000024,,S12000036,,S37000012,,S01008574,,S02001606,
242,S314H,Royal Infirmary of Edinburgh at Little France,51 Little France Crescent,Old Dalkeith Road,Edinburgh,,EH164SA,20020128,,S08000024,,S12000036,,S37000012,,S01008704,,S02001627,
243,S315H,Findlay House,Seafield Street,Edinburgh,,,EH6 7LG,20030602,,S08000024,,S12000036,,S37000012,,S01008768,,S02001640,
244,S316H,Princess Alexandra Eye Pavilion,45 Chalmers Street,Edinburgh,,,EH3 9HA,20031001,,S08000024,,S12000036,,S37000012,,S01008667,,S02001621,
245,S318H,Midlothian Community Hospital,70 Eskbank Road,Dalkeith,Midlothian,,EH223ND,20100801,,S08000024,,S12000019,,S37000018,,S01010996,,S02002063,
246,S319H,Royal Hospital for Children and Young People,50 Little France Crescent,Edinburgh,,,EH164TJ,20190401,,S08000024,,S12000036,,S37000012,,S01008704,,S02001627,
247,S320H,East Lothian Community Hospital,Alderson Road,Haddington,,,EH413PF,20181201,,S08000024,,S12000010,,S37000010,,S01008252,,S02001548,
248,S327V,Murray Park Nursing Home,136 Corstorphine Road,Edinburgh,,,EH126TT,19990507,,S27000001,,S12000036,,,z,S01008973,,S02001679,
249,S341V,Shawfair Park Hospital,10 Easter Shawfaiir,Edinburgh,,,EH221FE,20100301,,S27000001,,S12000019,,,z,S01011000,,S02002064,
250,S406C,The Edinburgh Clinic,40 Colinton Road,Edinburgh,,,EH105BT,,,S27000001,,S12000036,,,z,S01008633,,S02001616,
251,T101H,Ninewells Hospital,Dundee,,,,DD1 9SY,,,S08000030,,S12000042,,S37000007,,S01007694,,S02001446,
252,T104H,Kings Cross Hospital,Clepington Road,Dundee,,,DD3 8EA,,,S08000030,,S12000042,,S37000007,,S01007825,,S02001468,
253,T104V,Fernbrae Hospital,329 Perth Road,Dundee,,,DD2 1LJ,,,S27000001,,S12000042,,,z,S01007682,,S02001445,
254,T105H,Ashludie Hospital,Monifieth,Dundee,,,DD5 4HQ,,20131101,S08000030,,S12000041,,S37000003,,S01007151,,S02001347,
255,T107H,"Royal Victoria Hospital, Dundee",Jedburgh Road,Dundee,,,DD2 1SP,,,S08000030,,S12000042,,S37000007,,S01007684,,S02001445,
256,T113H,Dundee Dental Hospital,2 Park Place,Dundee,,,DD1 4HR,,,S08000030,,S12000042,,S37000007,,S01007691,,S02001446,
257,T114H,Royal Dundee Liff Hospital,Liff,Dundee,,,DD2 5NF,,20131101,S08000030,,S12000042,,S37000007,,S01007867,,S02001475,
258,T115H,Strathmartine Hospital,Strathmartine,Dundee,,,DD3 0PG,,,S08000030,,S12000041,,S37000003,,S01007133,,S02001344,
259,T116H,Armitstead Child Development Centre,Kings Cross Hospital,Clepington Road,Dundee,,DD3 8EA,,,S08000030,,S12000042,,S37000007,,S01007825,,S02001468,
260,T119H,Orleans Centre,Orleans Place,Dundee,,,DD2 4BH,,20131101,S08000030,,S12000042,,S37000007,,S01007843,,S02001471,
261,T120H,Hawkhill Day Hospital,Peddie Street,Dundee,,,DD1 5LB,,,S08000030,,S12000042,,S37000007,,S01007693,,S02001446,
262,T121H,Dundonald Centre,Unit 9a Manhattan Works,Dundonald Street,Dundee,,DD3 7PY,,,S08000030,,S12000042,,S37000007,,S01007726,,S02001452,
263,T123H,Royal Victoria Day Hospital,Royal Victoria Hospital,Jedburgh Road,Dundee,,DD2 1SP,,,S08000030,,S12000042,,S37000007,,S01007684,,S02001445,
264,T125H,Glaxo Day Hospital,Ashludie Hospital,Monifieth,,,DD5 4HQ,19930701,20131101,S08000030,,S12000041,,S37000003,,S01007151,,S02001347,
265,T202H,Perth Royal Infirmary,Taymount Terrace,Perth,,,PH1 1NX,,,S08000030,,S12000048,,S37000033,,S01011898,,S02002231,
266,T205H,St Margaret's Hospital,Western Road,Auchterarder,,,PH3 1JH,,,S08000030,,S12000048,,S37000033,,S01011854,,S02002223,
267,T207H,Aberfeldy Cottage Hospital,Old Crieff Road,Aberfeldy,,,PH152DH,,,S08000030,,S12000048,,S37000033,,S01012015,,S02002253,
268,T209H,Blairgowrie & Rattray Cottage Hospital,Perth Road,Blairgowrie,,,PH106EE,,,S08000030,,S12000048,,S37000033,,S01011991,,S02002249,
269,T215H,Murray Royal Hospital,Muirhall Road,Perth,,,PH2 7BH,,,S08000030,,S12000048,,S37000033,,S01011945,,S02002240,
270,T221H,Scone Day Hospital,Birch Avenue,Scone,,,PH2 6LE,19930701,,S08000030,,S12000048,,S37000033,,S01011950,,S02002241,
271,T304H,Arbroath Infirmary,Rosemount Road,Arbroath,,,DD112AT,,,S08000030,,S12000041,,S37000003,,S01007181,,S02001352,
272,T305H,Brechin Infirmary,Infirmary Street,Brechin,,,DD9 7AN,,,S08000030,,S12000041,,S37000003,,S01007234,,S02001361,
273,T309H,Little Cairnie Hospital,Forfar Road,Arbroath,,,DD113RA,,,S08000030,,S12000041,,S37000003,,S01007174,,S02001351,
274,T310H,Montrose Royal Infirmary,Bridge Street,Montrose,,,DD108AJ,,,S08000030,,S12000041,,S37000003,,S01007208,,S02001357,
275,T311H,Sunnyside Royal Hospital,Hillside,Montrose,,,DD109JP,,20111208,S08000030,,S12000041,,S37000003,,S01007223,,S02001359,
276,T312H,Stracathro Hospital,By Brechin,,,,DD9 7QA,,,S08000030,,S12000041,,S37000003,,S01007225,,S02001359,
277,T314H,Gowanlea,Seaton Road,Arbroath,,,DD115DX,19880401,,S08000030,,S12000041,,S37000003,,S01007189,,S02001353,
278,T315S,Clement Park House,Clement Park Place,Dundee,,,DD2 3JQ,,,S08000030,,S12000042,,S37000007,,S01007826,,S02001468,
279,T316H,Crieff Community Hospital,King Street,Crieff,,,PH7 3HR,19960329,,S08000030,,S12000048,,S37000033,,S01011870,,S02002226,
280,T317H,Carseview Centre,4 Tom Mcdonald Avenue,Medipark,Dundee,,DD2 1NH,20010401,,S08000030,,S12000042,,S37000007,,S01007839,,S02001471,
281,T317V,Rachel House Children's Hospice,Avenue Road,Kinross,,,KY138FX,,,S27000001,,S12000048,,,z,S01011842,,S02002220,
282,T319H,Whitehills Health and Community Care Centre,By Forfar,,,,DD8 3DY,,,S08000030,,S12000041,,S37000003,,S01007252,,S02001364,
283,T320H,Pitlochry Community Hospital,Ferry Road,Pitlochry,Perthshire,,PH165FG,20080201,,S08000030,,S12000048,,S37000033,,S01012010,,S02002252,
284,T322H,Kingsway Care Centre,Kings Cross Road,Dundee,,,DD2 3PT,20121001,,S08000030,,S12000042,,S37000007,,S01007826,,S02001468,
285,T323H,Bluebell Intermediate Care Unit,Riverside View Nursing Home,60 Clovis Duveau Drive,Dundee,,DD2 5JB,20140601,,S08000030,,S12000042,,S37000007,,S01007869,,S02001475,
286,T324H,Dudhope Young Peoples Inpatient Unit,17 Dudhope Terrace,Dundee,,,DD3 6HH,20150401,,S08000030,,S12000042,,S37000007,,S01007700,,S02001447,
287,T337V,Pitkerro Care Centre,146 Pitkerro Road,Dundee,,,DD4 8ER,20070901,,S27000001,,S12000042,,,z,S01007800,,S02001464,
288,V102H,Falkirk Community Hospital,Majors Loan,Falkirk,,,FK1 5QE,,,S08000019,,S12000014,,S37000013,,S01009155,,S02001716,
289,V103V,Strathcarron Hospice,Randolph Hill,Denny,Stirlingshire,,FK6 5HJ,,,S27000001,,S12000014,,,z,S01009055,,S02001697,
290,V105H,Bo'ness Hospital,Dean Road,Bo'ness,,,EH510DH,,,S08000019,,S12000014,,S37000013,,S01009257,,S02001736,
291,V106H,Bellsdyke Hospital,Bellsdyke Road,Larbert,,,FK5 4SF,,,S08000019,,S12000014,,S37000013,,S01009090,,S02001703,
292,V107H,Bonnybridge Hospital,Falkirk Road,Bonnybridge,,,FK4 1BD,19880328,20111231,S08000019,,S12000014,,S37000013,,S01009082,,S02001701,
293,V109H,Bonnybridge Day Hospital,Falkirk Road,Bonnybridge,,,FK4 1BD,19880601,20111231,S08000019,,S12000014,,S37000013,,S01009082,,S02001701,
294,V111H,Westbank Day Hospital,Westbank,Falkirk,,,FK1 5RT,19920817,20160122,S08000019,,S12000014,,S37000013,,S01009154,,S02001716,
295,V113H,Mental Health & Long Stay Geriatric Services,Falkirk Royal Infirmary,1 Majors Loan,Falkirk,,FK1 5QE,,20131128,S08000019,,S12000014,,S37000013,,S01009155,,S02001716,
296,V201H,Stirling Community Hospital,Livilands Gate,Stirling,,,FK8 2AU,,,S08000019,,S12000030,,S37000005,,S01013060,,S02002447,
297,V202H,Bannockburn Hospital,Bannockburn,Stirling,,,FK7 8AH,,20121126,S08000019,,S12000030,,S37000005,,S01013025,,S02002440,
298,V203H,Stirling Mental Health Resource Centre,146 Drip Road,Stirling,,,FK8 1RW,,20140430,S08000019,,S12000030,,S37000005,,S01013073,,S02002450,
299,V206H,Orchard House Day Hospital,9 Union Street,Stirling,,,FK8 1PA,,20131129,S08000019,,S12000030,,S37000005,,S01013071,,S02002449,
300,V213H,Dunrowan Acute Day Hospital,Maggiewoods Loan,Falkirk,,,FK1 5EH,,20160122,S08000019,,S12000014,,S37000013,,S01009156,,S02001716,
301,V213V,BMI King's Park Hospital,Polmaise Road,Stirling,,,FK7 9JH,,,S27000001,,S12000030,,,z,S01013023,,S02002439,
302,V214H,Lochview Hospital,Stirling Road,Larbert,,,FK5 4SE,20030401,,S08000019,,S12000014,,S37000013,,S01009088,,S02001703,
303,V215H,Bungalows/Red Lodge,Stirling Road,Larbert,Stirlingshire,,FK5 4AE,,,S08000019,,S12000014,,S37000013,,S01009095,,S02001704,
304,V216H,Clackmannanshire Community Healthcare Centre,Hall Park Road,Sauchie,,,FK103JQ,20090701,,S08000019,,S12000005,,S37000005,,S01007460,,S02001401,
305,V217H,Forth Valley Royal Hospital,Stirling Road,Larbert,,,FK5 4WR,20100801,,S08000019,,S12000014,,S37000013,,S01009088,,S02001703,
306,W102V,Bethesda Hospice,Springfield Road,Stornoway,Isle Of Lewis,,HS1 2PS,,,S27000001,,S12000013,,,z,S01009043,,S02001694,
307,W106H,St Brendans Cot Hospital,Horve,Isle Of Barra,,,HS9 5XE,,,S08000028,,S12000013,,S37000031,,S01009014,,S02001687,
308,W107H,Western Isles Hospital,Macaulay Road,Stornoway,Isle Of Lewis,,HS1 2AF,19921001,,S08000028,,S12000013,,S37000031,,S01009045,,S02001694,
309,W108H,Uist & Barra Hospital,Balivanich,Isle Of Benbecula,,,HS7 5LA,20010305,,S08000028,,S12000013,,S37000031,,S01009020,,S02001688,
310,Y101H,Castle Douglas Community Hospital,Academy Street,Castle Douglas,,,DG7 1EE,,,S08000017,,S12000006,,S37000006,,S01007536,,S02001415,
311,Y103H,Crichton Royal Hospital,Glencaple Road,Dumfries,,,DG1 4TG,,,S08000017,,S12000006,,S37000006,,S01007599,,S02001427,
312,Y105H,Nithbank Hospital,Nithbank,Dumfries,,,DG1 2SA,,,S08000017,,S12000006,,S37000006,,S01007600,,S02001427,
313,Y106H,Kirkcudbright Cottage Hospital,Townend,Kirkcudbright,,,DG6 4BE,,,S08000017,,S12000006,,S37000006,,S01007527,,S02001414,
314,Y107H,Thomas Hope Hospital,Langholm,,,,DG130JX,,,S08000017,,S12000006,,S37000006,,S01007647,,S02001438,
315,Y108H,Lochmaben Hospital,Lochmaben,Lockerbie,,,DG111RQ,,,S08000017,,S12000006,,S37000006,,S01007632,,S02001435,
316,Y109H,Moffat Community Hospital,Holmend,Moffat,,,DG109JY,,,S08000017,,S12000006,,S37000006,,S01007644,,S02001437,
317,Y110H,Newton Stewart Hospital,Newton Stewart,,,,DG8 6LZ,,,S08000017,,S12000006,,S37000006,,S01007513,,S02001412,
318,Y114H,Thornhill Hospital,Thornhill,,,,DG3 5AA,,,S08000017,,S12000006,,S37000006,,S01007561,,S02001420,
319,Y120H,Annan Hospital,Stapleton Road,Annan,,,DG126NQ,,,S08000017,,S12000006,,S37000006,,S01007671,,S02001442,
320,Y121V,Allanbank Nursing Home,Bankend Road,Dumfries,,,DG1 4AN,20000508,,S27000001,,S12000006,,,z,S01007600,,S02001427,
321,Y123H,Netherlea,Bankend Road,Dumfries,,,DG1 4AL,,20120601,S08000017,,S12000006,,S37000006,,S01007600,,S02001427,
322,Y124H,Cromarty,Sun Street,Stranraer,,,DG9 7JL,,,S08000017,,S12000006,,S37000006,,S01007487,,S02001406,
323,Y126H,Acorn House,Kingholm Road,Dumfries,,,DG1 4SR,19910201,,S08000017,,S12000006,,S37000006,,S01007600,,S02001427,
324,Y127H,Huntingdon Community Day Centre,32 Lovers Walk,Dumfries,,,DG1 1LP,,20170131,S08000017,,S12000006,,S37000006,,S01007613,,S02001431,
325,Y130H,Innistaigh,Dalrymple Street,Stranraer,,,DG9 7EH,19920803,,S08000017,,S12000006,,S37000006,,S01007492,,S02001407,
326,Y131H,Ladyfield Hospital,Glencaple Road,Dumfries,,,DG1 4TE,,20170131,S08000017,,S12000006,,S37000006,,S01007593,,S02001426,
327,Y134H,Treastaigh,Stapleton Road,Annan,,,DG126JP,,,S08000017,,S12000006,,S37000006,,S01007671,,S02001442,
328,Y135H,Nithview Day Hospital,Nithbank,Dumfries,,,DG1 2SD,,,S08000017,,S12000006,,S37000006,,S01007600,,S02001427,
329,Y137H,Holly Cottage (CETU),Nithbank,Dumfries,,,DG1 2SA,20000616,20110930,S08000017,,S12000006,,S37000006,,S01007600,,S02001427,
330,Y138H,Heather Lodge (CETU),Nithbank,Dumfries,,,DG1 2SA,20000616,,S08000017,,S12000006,,S37000006,,S01007600,,S02001427,
331,Y139H,Lahraig (CETU),Nithbank,Dumfries,,,DG1 2SA,20000602,20120130,S08000017,,S12000006,,S37000006,,S01007600,,S02001427,
332,Y143H,Darataigh,Dalrymple Street,Stranraer,,,DG9 7EH,20030401,20170131,S08000017,,S12000006,,S37000006,,S01007492,,S02001407,
333,Y144H,Galloway Community Hospital,Dalrymple Street,Stranraer,,,DG9 7DQ,20060904,,S08000017,,S12000006,,S37000006,,S01007492,,S02001407,
334,Y145H,Midpark Hospital,Bankend Road,Dumfries,,,DG1 4TN,20111123,,S08000017,,S12000006,,S37000006,,S01007598,,S02001427,
335,Y146H,Dumfries & Galloway Royal Infirmary,Cargenbridge,Dumfries,,,DG2 8RX,20170101,,S08000017,,S12000006,,S37000006,,S01007594,,S02001426,
336,Y177C,Mountainhall Treatment Centre,Bankend Road,Dumfries,,,DG1 4AL,20171209,,S08000017,,S12000006,,S37000006,,S01007600,,S02001427,
337,Z102H,Gilbert Bain Hospital,Lerwick,Shetland,,,ZE1 0TB,,,S08000026,,S12000027,,S37000026,,S01012395,,S02002324,
338,Z103H,Montfield Hospital,Burgh Road,Lerwick,Shetland,,ZE1 0LA,,20111110,S08000026,,S12000027,,S37000026,,S01012398,,S02002324,